{"type": "FeatureCollection", "features": [ {"type": "Feature", "properties": {"norad_id": 37834, "name": "INTELSAT 18 (IS-18)", "group": "intelsat", "lat": 0.029292833153246083, "lon": -5.4617364591322595, "alt_km": 35783.41042196908, "timestamp": "2025-12-20T05:41:49.685962+00:00", "meta": {"OBJECT_NAME": "INTELSAT 18 (IS-18)", "OBJECT_ID": "2011-056A", "EPOCH": "2025-12-19T19:15:17.492256", "MEAN_MOTION": 1.0027221, "ECCENTRICITY": 0.00016561, "INCLINATION": 0.0348, "RA_OF_ASC_NODE": 279.4074, "ARG_OF_PERICENTER": 6.336, "MEAN_ANOMALY": 271.7233, "EPHEMERIS_TYPE": 0, "CLASSIFICATION_TYPE": "U", "NORAD_CAT_ID": 37834, "ELEMENT_SET_NO": 999, "REV_AT_EPOCH": 5201, "BSTAR": 0, "MEAN_MOTION_DOT": 7.7e-07, "MEAN_MOTION_DDOT": 0}, "tle": {"line1": "1 37834U 11056A   25353.80228579  .00000077  00000+0  00000+0 0  9999", "line2": "2 37834   0.0348 279.4074 0001656   6.3360 271.7233  1.00272210 52019"}}, "geometry": {"type": "Point", "coordinates": [-5.4617364591322595, 0.029292833153246083]}}, {"type": "Feature", "properties": {"norad_id": 38098, "name": "INTELSAT 22 (IS-22)", "group": "intelsat", "lat": -0.022293704170822135, "lon": -113.3947018476287, "alt_km": 35779.861765457, "timestamp": "2025-12-20T05:41:49.685973+00:00", "meta": {"OBJECT_NAME": "INTELSAT 22 (IS-22)", "OBJECT_ID": "2012-011A", "EPOCH": "2025-12-19T19:48:56.096064", "MEAN_MOTION": 1.00270554, "ECCENTRICITY": 0.00018085, "INCLINATION": 0.0143, "RA_OF_ASC_NODE": 46.6827, "ARG_OF_PERICENTER": 231.0722, "MEAN_ANOMALY": 180.2437, "EPHEMERIS_TYPE": 0, "CLASSIFICATION_TYPE": "U", "NORAD_CAT_ID": 38098, "ELEMENT_SET_NO": 999, "REV_AT_EPOCH": 539, "BSTAR": 0, "MEAN_MOTION_DOT": -3.4e-07, "MEAN_MOTION_DDOT": 0}, "tle": {"line1": "1 38098U 12011A   25353.82564926 -.00000034  00000+0  00000+0 0  9999", "line2": "2 38098   0.0143  46.6827 0001808 231.0722 180.2437  1.00270554  5391"}}, "geometry": {"type": "Point", "coordinates": [-113.3947018476287, -0.022293704170822135]}}, {"type": "Feature", "properties": {"norad_id": 38356, "name": "INTELSAT 19 (IS-19)", "group": "intelsat", "lat": -0.008613396269221543, "lon": -19.448201607946437, "alt_km": 35783.306271657326, "timestamp": "2025-12-20T05:41:49.685986+00:00", "meta": {"OBJECT_NAME": "INTELSAT 19 (IS-19)", "OBJECT_ID": "2012-030A", "EPOCH": "2025-12-19T17:28:37.237728", "MEAN_MOTION": 1.00271271, "ECCENTRICITY": 0.00027409, "INCLINATION": 0.0115, "RA_OF_ASC_NODE": 352.2924, "ARG_OF_PERICENTER": 272.7431, "MEAN_ANOMALY": 251.6929, "EPHEMERIS_TYPE": 0, "CLASSIFICATION_TYPE": "U", "NORAD_CAT_ID": 38356, "ELEMENT_SET_NO": 999, "REV_AT_EPOCH": 4865, "BSTAR": 0, "MEAN_MOTION_DOT": -3.2e-07, "MEAN_MOTION_DDOT": 0}, "tle": {"line1": "1 38356U 12030A   25353.72820877 -.00000032  00000+0  00000+0 0  9994", "line2": "2 38356   0.0115 352.2924 0002740 272.7431 251.6929  1.00271271 48658"}}, "geometry": {"type": "Point", "coordinates": [-19.448201607946437, -0.008613396269221543]}}, {"type": "Feature", "properties": {"norad_id": 38740, "name": "INTELSAT 20 (IS-20)", "group": "intelsat", "lat": -0.011605675015176743, "lon": -116.95039927494228, "alt_km": 35780.84368358111, "timestamp": "2025-12-20T05:41:49.685998+00:00", "meta": {"OBJECT_NAME": "INTELSAT 20 (IS-20)", "OBJECT_ID": "2012-043A", "EPOCH": "2025-12-19T20:26:10.703328", "MEAN_MOTION": 1.00270024, "ECCENTRICITY": 0.00027724, "INCLINATION": 0.0228, "RA_OF_ASC_NODE": 81.7729, "ARG_OF_PERICENTER": 100.6743, "MEAN_ANOMALY": 281.2944, "EPHEMERIS_TYPE": 0, "CLASSIFICATION_TYPE": "U", "NORAD_CAT_ID": 38740, "ELEMENT_SET_NO": 999, "REV_AT_EPOCH": 4895, "BSTAR": 0, "MEAN_MOTION_DOT": 0, "MEAN_MOTION_DDOT": 0}, "tle": {"line1": "1 38740U 12043A   25353.85151277  .00000000  00000+0  00000+0 0  9994", "line2": "2 38740   0.0228  81.7729 0002772 100.6743 281.2944  1.00270024 48951"}}, "geometry": {"type": "Point", "coordinates": [-116.95039927494228, -0.011605675015176743]}}, {"type": "Feature", "properties": {"norad_id": 38749, "name": "INTELSAT 21 (IS-21)", "group": "intelsat", "lat": 0.011754023922418068, "lon": 116.51342249909473, "alt_km": 35790.902889422105, "timestamp": "2025-12-20T05:41:49.686010+00:00", "meta": {"OBJECT_NAME": "INTELSAT 21 (IS-21)", "OBJECT_ID": "2012-045A", "EPOCH": "2025-12-19T11:16:36.486336", "MEAN_MOTION": 1.00273688, "ECCENTRICITY": 0.0001541, "INCLINATION": 0.0278, "RA_OF_ASC_NODE": 286.5242, "ARG_OF_PERICENTER": 333.6711, "MEAN_ANOMALY": 299.2721, "EPHEMERIS_TYPE": 0, "CLASSIFICATION_TYPE": "U", "NORAD_CAT_ID": 38749, "ELEMENT_SET_NO": 999, "REV_AT_EPOCH": 4872, "BSTAR": 0, "MEAN_MOTION_DOT": -2.6e-06, "MEAN_MOTION_DDOT": 0}, "tle": {"line1": "1 38749U 12045A   25353.46986674 -.00000260  00000+0  00000+0 0  9998", "line2": "2 38749   0.0278 286.5242 0001541 333.6711 299.2721  1.00273688 48722"}}, "geometry": {"type": "Point", "coordinates": [116.51342249909473, 0.011754023922418068]}}, {"type": "Feature", "properties": {"norad_id": 38867, "name": "INTELSAT 23 (IS-23)", "group": "intelsat", "lat": 0.03150564125631583, "lon": 121.55279628571593, "alt_km": 35788.97640590804, "timestamp": "2025-12-20T05:41:49.686022+00:00", "meta": {"OBJECT_NAME": "INTELSAT 23 (IS-23)", "OBJECT_ID": "2012-057A", "EPOCH": "2025-12-19T18:08:46.361760", "MEAN_MOTION": 1.00270282, "ECCENTRICITY": 5.784e-05, "INCLINATION": 0.0148, "RA_OF_ASC_NODE": 49.4556, "ARG_OF_PERICENTER": 244.3667, "MEAN_ANOMALY": 14.0058, "EPHEMERIS_TYPE": 0, "CLASSIFICATION_TYPE": "U", "NORAD_CAT_ID": 38867, "ELEMENT_SET_NO": 999, "REV_AT_EPOCH": 4815, "BSTAR": 0, "MEAN_MOTION_DOT": -2.6e-06, "MEAN_MOTION_DDOT": 0}, "tle": {"line1": "1 38867U 12057A   25353.75609215 -.00000260  00000+0  00000+0 0  9997", "line2": "2 38867   0.0148  49.4556 0000578 244.3667  14.0058  1.00270282 48150"}}, "geometry": {"type": "Point", "coordinates": [121.55279628571593, 0.03150564125631583]}}, {"type": "Feature", "properties": {"norad_id": 39360, "name": "FM-6", "group": "intelsat", "lat": 0.012325561967315341, "lon": 58.32625176052471, "alt_km": 35792.77897309374, "timestamp": "2025-12-20T05:41:49.686035+00:00", "meta": {"OBJECT_NAME": "FM-6", "OBJECT_ID": "2013-058A", "EPOCH": "2025-12-19T13:17:47.071392", "MEAN_MOTION": 1.00268723, "ECCENTRICITY": 0.00030354, "INCLINATION": 0.0116, "RA_OF_ASC_NODE": 64.371, "ARG_OF_PERICENTER": 111.3977, "MEAN_ANOMALY": 355.921, "EPHEMERIS_TYPE": 0, "CLASSIFICATION_TYPE": "U", "NORAD_CAT_ID": 39360, "ELEMENT_SET_NO": 999, "REV_AT_EPOCH": 4427, "BSTAR": 0, "MEAN_MOTION_DOT": 8e-08, "MEAN_MOTION_DDOT": 0}, "tle": {"line1": "1 39360U 13058A   25353.55401703  .00000008  00000+0  00000+0 0  9997", "line2": "2 39360   0.0116  64.3710 0003035 111.3977 355.9210  1.00268723 44273"}}, "geometry": {"type": "Point", "coordinates": [58.32625176052471, 0.012325561967315341]}}, {"type": "Feature", "properties": {"norad_id": 40271, "name": "INTELSAT 30 (IS-30)", "group": "intelsat", "lat": 0.03577242497300803, "lon": 79.46391999086049, "alt_km": 35779.632941397045, "timestamp": "2025-12-20T05:41:49.686046+00:00", "meta": {"OBJECT_NAME": "INTELSAT 30 (IS-30)", "OBJECT_ID": "2014-062A", "EPOCH": "2025-12-19T19:39:22.686048", "MEAN_MOTION": 1.00270758, "ECCENTRICITY": 0.00016331, "INCLINATION": 0.0146, "RA_OF_ASC_NODE": 25.4584, "ARG_OF_PERICENTER": 66.8545, "MEAN_ANOMALY": 196.1418, "EPHEMERIS_TYPE": 0, "CLASSIFICATION_TYPE": "U", "NORAD_CAT_ID": 40271, "ELEMENT_SET_NO": 999, "REV_AT_EPOCH": 499, "BSTAR": 0, "MEAN_MOTION_DOT": -1.26e-06, "MEAN_MOTION_DDOT": 0}, "tle": {"line1": "1 40271U 14062A   25353.81901257 -.00000126  00000+0  00000+0 0  9996", "line2": "2 40271   0.0146  25.4584 0001633  66.8545 196.1418  1.00270758  4994"}}, "geometry": {"type": "Point", "coordinates": [79.46391999086049, 0.03577242497300803]}}, {"type": "Feature", "properties": {"norad_id": 40333, "name": "DIRECTV 14", "group": "intelsat", "lat": 0.044365180913958135, "lon": 75.30235668200926, "alt_km": 35785.56918018215, "timestamp": "2025-12-20T05:41:49.686058+00:00", "meta": {"OBJECT_NAME": "DIRECTV 14", "OBJECT_ID": "2014-078B", "EPOCH": "2025-12-19T16:13:00.599232", "MEAN_MOTION": 1.00271466, "ECCENTRICITY": 3.907e-05, "INCLINATION": 0.0182, "RA_OF_ASC_NODE": 338.4669, "ARG_OF_PERICENTER": 165.2369, "MEAN_ANOMALY": 88.8552, "EPHEMERIS_TYPE": 0, "CLASSIFICATION_TYPE": "U", "NORAD_CAT_ID": 40333, "ELEMENT_SET_NO": 999, "REV_AT_EPOCH": 4024, "BSTAR": 0, "MEAN_MOTION_DOT": -1.01e-06, "MEAN_MOTION_DDOT": 0}, "tle": {"line1": "1 40333U 14078B   25353.67570138 -.00000101  00000+0  00000+0 0  9999", "line2": "2 40333   0.0182 338.4669 0000390 165.2369  88.8552  1.00271466 40242"}}, "geometry": {"type": "Point", "coordinates": [75.30235668200926, 0.044365180913958135]}}, {"type": "Feature", "properties": {"norad_id": 40663, "name": "DIRECTV 15", "group": "intelsat", "lat": 0.043709962003073886, "lon": 71.65011155509593, "alt_km": 35785.550259926335, "timestamp": "2025-12-20T05:41:49.686070+00:00", "meta": {"OBJECT_NAME": "DIRECTV 15", "OBJECT_ID": "2015-026A", "EPOCH": "2025-12-19T19:37:07.901184", "MEAN_MOTION": 1.00271591, "ECCENTRICITY": 2.084e-05, "INCLINATION": 0.0174, "RA_OF_ASC_NODE": 339.1795, "ARG_OF_PERICENTER": 140.8553, "MEAN_ANOMALY": 160.0394, "EPHEMERIS_TYPE": 0, "CLASSIFICATION_TYPE": "U", "NORAD_CAT_ID": 40663, "ELEMENT_SET_NO": 999, "REV_AT_EPOCH": 3866, "BSTAR": 0, "MEAN_MOTION_DOT": -7.8e-07, "MEAN_MOTION_DDOT": 0}, "tle": {"line1": "1 40663U 15026A   25353.81745256 -.00000078  00000+0  00000+0 0  9993", "line2": "2 40663   0.0174 339.1795 0000208 140.8553 160.0394  1.00271591 38668"}}, "geometry": {"type": "Point", "coordinates": [71.65011155509593, 0.043709962003073886]}}]}